BEIDOU-2 IGSO-1 (C06)   
1 36828U 10036A   26020.31578397 -.00000108  00000+0  00000+0 0  9998
2 36828  54.2926 164.2994 0052684 216.7075 319.8156  1.00265144 56619
BEIDOU-2 G4 (C04)       
1 37210U 10057A   26020.35279741 -.00000100  00000+0  00000+0 0  9994
2 37210   3.2785  69.7888 0009995 201.6707 135.2786  1.00270741 55803
BEIDOU-2 IGSO-2 (C07)   
1 37256U 10068A   26019.60529178 -.00000159  00000+0  00000+0 0  9998
2 37256  47.8132 273.6789 0047630 215.3353 316.2727  1.00274060 55305
BEIDOU-2 IGSO-3 (C08)   
1 37384U 11013A   26019.87989772 -.00000136  00000+0  00000+0 0  9995
2 37384  62.1960  41.5506 0033979 189.6426 310.9652  1.00261466 54178
BEIDOU-2 IGSO-4 (C09)   
1 37763U 11038A   26018.90615102 -.00000010  00000+0  00000+0 0  9990
2 37763  54.5898 167.0156 0151392 230.3120 142.2273  1.00274624 53156
BEIDOU-2 IGSO-5 (C10)   
1 37948U 11073A   26019.67088200 -.00000101  00000+0  00000+0 0  9993
2 37948  47.9476 273.3886 0108843 221.8471 320.0256  1.00282842 51647
BEIDOU-2 G5 (C05)       
1 38091U 12008A   26020.16317880  .00000070  00000+0  00000+0 0  9991
2 38091   3.2032  70.5596 0013882 240.2526 286.2069  1.00269325 50880
BEIDOU-2 M3 (C11)       
1 38250U 12018A   26019.98829287 -.00000052  00000+0  00000+0 0  9997
2 38250  55.8859 309.8718 0023176 277.7823  81.9864  1.86230221 93183
BEIDOU-2 M4 (C12)       
1 38251U 12018B   26019.92039375 -.00000051  00000+0  00000+0 0  9992
2 38251  55.7873 309.1001 0014423 283.1922  76.6795  1.86229897 93184
BEIDOU-2 M6 (C14)       
1 38775U 12050B   26018.55712669 -.00000016  00000+0  00000+0 0  9992
2 38775  56.4102  67.8448 0012423 340.7901  19.2422  1.86230941 90523
BEIDOU-2 G6 (C02)       
1 38953U 12059A   26020.09687841 -.00000163  00000+0  00000+0 0  9997
2 38953   4.0449  75.1280 0009373 296.2013 227.0316  1.00270616 48421
BEIDOU-3S IGSO-1S (C31) 
1 40549U 15019A   26019.60055530 -.00000160  00000+0  00000+0 0  9996
2 40549  49.4770 297.2580 0035796 192.8647 300.9417  1.00284633 39581
BEIDOU-3S M2S (C58)     
1 40748U 15037A   26019.05121815 -.00000052  00000+0  00000+0 0  9996
2 40748  55.0041 307.1821 0010821 275.3563  84.5529  1.86232214 71342
BEIDOU-3S M1S (C57)     
1 40749U 15037B   26019.81360821 -.00000049  00000+0  00000+0 0  9999
2 40749  54.9997 307.1453 0004005  11.3073 348.7372  1.86254068 71367
BEIDOU-3S IGSO-2S (C56) 
1 40938U 15053A   26016.74545162 -.00000068  00000+0  00000+0 0  9990
2 40938  49.4536 260.5880 0060566 187.9938  30.9211  1.00262248 37836
BEIDOU-2 IGSO-6 (C13)   
1 41434U 16021A   26020.02719801 -.00000117  00000+0  00000+0 0  9992
2 41434  60.0199  39.5122 0060780 231.8072 312.6832  1.00286453 35999
BEIDOU-2 G7 (C03)       
1 41586U 16037A   26020.31613064 -.00000339  00000+0  00000+0 0  9999
2 41586   1.8495  68.1742 0006051 358.1189 277.6410  1.00265621  5407
BEIDOU-3 M1 (C19)       
1 43001U 17069A   26019.39649980 -.00000011  00000+0  00000+0 0  9998
2 43001  56.5588  67.9888 0010930 303.5803  56.3962  1.86231234 55830
BEIDOU-3 M2 (C20)       
1 43002U 17069B   26018.79796135 -.00000014  00000+0  00000+0 0  9990
2 43002  56.5578  68.0442 0007867 325.7548  34.2743  1.86231072 55815
BEIDOU-3 M7 (C27)       
1 43107U 18003A   26019.61438337 -.00000051  00000+0  00000+0 0  9995
2 43107  54.4614 307.4974 0003589  65.1246 294.9470  1.86232653 54587
BEIDOU-3 M8 (C28)       
1 43108U 18003B   26019.02263560 -.00000053  00000+0  00000+0 0  9997
2 43108  54.4549 307.5004 0004110 285.6155  74.3711  1.86231158 54586
BEIDOU-3 M4 (C22)       
1 43207U 18018A   26020.00170888 -.00000010  00000+0  00000+0 0  9996
2 43207  56.5182  68.0379 0005051 351.9040   8.1691  1.86231215 53980
BEIDOU-3 M3 (C21)       
1 43208U 18018B   26019.53123000 -.00000011  00000+0  00000+0 0  9998
2 43208  56.5171  68.0575 0008311 313.8325  46.1797  1.86231450 53971
BEIDOU-3 M9 (C29)       
1 43245U 18029A   26019.21086419 -.00000049  00000+0  00000+0 0  9999
2 43245  54.3301 305.1610 0001197 316.9154  43.1120  1.86228367 53124
BEIDOU-3 M10 (C30)      
1 43246U 18029B   26019.68290808 -.00000047  00000+0  00000+0 0  9998
2 43246  54.3271 305.1712 0004776  10.8787 349.1702  1.86229269 53118
BEIDOU-2 IGSO-7 (C16)   
1 43539U 18057A   26005.15661572 -.00000100  00000+0  00000+0 0  9991
2 43539  55.1801 164.4661 0093553 235.1954 230.6715  1.00249884 27490
BEIDOU-3 M5 (C23)       
1 43581U 18062A   26017.75943038  .00000074  00000+0  00000+0 0  9992
2 43581  54.0907 187.4176 0001761 356.8943   3.0877  1.86228753 50838
BEIDOU-3 M6 (C24)       
1 43582U 18062B   26019.77012348  .00000075  00000+0  00000+0 0  9999
2 43582  54.0902 187.3381 0007641  49.3340 310.7059  1.86229656 50876
BEIDOU-3 M12 (C26)      
1 43602U 18067A   26018.09748007  .00000072  00000+0  00000+0 0  9996
2 43602  54.1845 186.1289 0009184  42.3098 317.7399  1.86227888 50326
BEIDOU-3 M11 (C25)      
1 43603U 18067B   26019.84296019  .00000074  00000+0  00000+0 0  9994
2 43603  54.1821 186.0338 0005532  38.4701 321.5405  1.86227323 50386
BEIDOU-3 M13 (C32)      
1 43622U 18072A   26019.26235597 -.00000012  00000+0  00000+0 0  9994
2 43622  56.4916  67.5770 0007543 299.6984  60.3070  1.86231189 49882
BEIDOU-3 M14 (C33)      
1 43623U 18072B   26019.66477799 -.00000011  00000+0  00000+0 0  9990
2 43623  56.4935  67.5578 0004780 322.7510  37.2969  1.86231162 49884
BEIDOU-3 M16 (C35)      
1 43647U 18078A   26018.74820869 -.00000051  00000+0  00000+0 0  9994
2 43647  54.2264 305.2269 0007934  23.9175 336.1539  1.86232370 49371
BEIDOU-3 M15 (C34)      
1 43648U 18078B   26019.95136215 -.00000047  00000+0  00000+0 0  9999
2 43648  54.2214 305.1852 0004651  25.8489 334.2138  1.86232382 49418
BEIDOU-3 G1 (C59)       
1 43683U 18085A   26020.25061025 -.00000266  00000+0  00000+0 0  9990
2 43683   2.7026 101.7674 0001374  31.4930 216.5974  1.00267855 26572
BEIDOU-3 M17 (C36)      
1 43706U 18093A   26018.54579082  .00000073  00000+0  00000+0 0  9996
2 43706  54.1745 187.3720 0005982 304.9122  86.0968  1.86228407 48750
BEIDOU-3 M18 (C37)      
1 43707U 18093B   26018.89826569  .00000073  00000+0  00000+0 0  9990
2 43707  54.1752 187.3520 0006003 353.5953   6.3741  1.86226593 48752
BEIDOU-2 G8 (C01)       
1 44231U 19027A   26020.25156359 -.00000234  00000+0  00000+0 0  9997
2 44231   1.7576  74.7927 0008753 262.4776  17.4146  1.00274953 24599
BEIDOU-3 IGSO-2 (C39)   
1 44337U 19035A   26014.80226035 -.00000098  00000+0  00000+0 0  9994
2 44337  55.2327 160.2108 0037807 203.4776 157.9721  1.00260960 24135
BEIDOU-3 M24 (C46)      
1 44542U 19061A   26018.43186869  .00000074  00000+0  00000+0 0  9997
2 44542  54.4014 187.7774 0009464  26.8086 333.2205  1.86229282 43008
BEIDOU-3 M23 (C45)      
1 44543U 19061B   26018.67377242  .00000074  00000+0  00000+0 0  9991
2 44543  54.4004 187.7376 0005878  26.4697  48.2746  1.86227595 43014
BEIDOU-3 M22 (C44)      
1 44793U 19078A   26019.88255514 -.00000047  00000+0  00000+0 0  9998
2 44793  54.0721 305.0473 0006698  28.1646 331.9111  1.86232214 41885
BEIDOU-3 M21 (C43)      
1 44794U 19078B   26018.94717237 -.00000050  00000+0  00000+0 0  9994
2 44794  54.0462 305.0445 0004828  19.5411 340.5133  1.86227954 41878
BEIDOU-3 M19 (C41)      
1 44864U 19090A   26020.26595034 -.00000010  00000+0  00000+0 0  9999
2 44864  56.4259  67.6832 0019506 287.0117  73.3049  1.86231606 41484
BEIDOU-3 M20 (C42)      
1 44865U 19090B   26020.13284528 -.00000010  00000+0  00000+0 0  9999
2 44865  56.4273  67.7219 0016676 298.6373  62.0523  1.86231667 41465
BEIDOU-3 G2 (C60)       
1 45344U 20017A   26020.16742549 -.00000127  00000+0  00000+0 0  9997
2 45344   2.5686  44.7231 0002165 264.9822 310.1517  1.00271846 21771
BEIDOU-3 G3 (C61)       
1 45807U 20040A   26020.31613064 -.00000341  00000+0  00000+0 0  9991
2 45807   2.0832  66.9094 0004487 311.1596 325.9560  1.00276364 20588
BEIDOU-3 G4 (C62)       
1 56564U 23066A   26020.25459693 -.00000098  00000+0  00000+0 0  9992
2 56564   0.7337 305.4872 0001752 212.1182 213.6276  1.00270138  9917
BEIDOU-3 M28 (C50)      
1 58654U 23207A   26019.56207240 -.00000014  00000+0  00000+0 0  9990
2 58654  55.6178  67.3199 0003893 286.4813  73.5558  1.86229737 14072
BEIDOU-3 M26 (C48)      
1 58655U 23207B   26018.28560263 -.00000020  00000+0  00000+0 0  9993
2 58655  55.6189  67.3495 0005012 271.7650  88.2549  1.86229659 14037
BEIDOU-3 M25 (C47)      
1 61186U 24168B   26019.36851610 -.00000052  00000+0  00000+0 0  9997
2 61186  54.6070 307.4163 0005118 307.4872 175.4318  1.86230178  9011
BEIDOU-3 M27 (C49)      
1 61187U 24168C   26019.71177933 -.00000051  00000+0  00000+0 0  9995
2 61187  54.6021 307.3879 0002765 355.8677 132.1558  1.86230320  6490
